NORAD_CAT_ID,OBJECT_NAME,OBJECT_TYPE,EPOCH,MEAN_MOTION,ECCENTRICITY,INCLINATION,RA_OF_ASC_NODE,ARG_OF_PERICENTER,MEAN_ANOMALY,BSTAR,MEAN_MOTION_DOT,MEAN_MOTION_DDOT,TLE_LINE0,TLE_LINE1,TLE_LINE2,SEMIMAJOR_AXIS,PERIOD,APOGEE,PERIGEE,DECAYED
53558.0,STARLINK-4494,PAYLOAD,2023-04-06 11:11:48,15.08847149,0.0001244,53.2181,174.2828,83.6916,276.4217,-2.8583e-05,-7.43e-06,0.0,0 STARLINK-4494,1 53558U 22101AH  23096.46653911 -.00000743  00000-0 -28583-4 0  9993,2 53558  53.2181 174.2828 0001244  83.6916 276.4217 15.08847149 35772,6917.859,95.437,540.584,538.863,0.0
53558.0,STARLINK-4494,PAYLOAD,2023-04-06 22:19:30,15.08841557,0.0001247,53.2182,172.2017,84.4595,275.6539,6.2403e-05,7.05e-06,0.0,0 STARLINK-4494,1 53558U 22101AH  23096.93021826  .00000705  00000-0  62403-4 0  9994,2 53558  53.2182 172.2017 0001247  84.4595 275.6539 15.08841557 35849,6917.876,95.437,540.603,538.878,0.0
53558.0,STARLINK-4494,PAYLOAD,2023-04-07 11:02:36,15.08838372,0.0001328,53.2182,169.8232,85.1502,274.9642,5.52e-05,5.91e-06,0.0,0 STARLINK-4494,1 53558U 22101AH  23097.46014095  .00000591  00000-0  55200-4 0  9993,2 53558  53.2182 169.8232 0001328  85.1502 274.9642 15.08838372 35260,6917.885,95.438,540.669,538.832,0.0
53558.0,STARLINK-4494,PAYLOAD,2023-04-07 14:13:22,15.08841858,0.000142,53.2187,169.2288,85.4459,274.6696,0.00010248,1.343e-05,0.0,0 STARLINK-4494,1 53558U 22101AH  23097.59261755  .00001343  00000-0  10248-3 0  9992,2 53558  53.2187 169.2288 0001420  85.4459 274.6696 15.08841858 35941,6917.875,95.437,540.722,538.757,0.0
53558.0,STARLINK-4494,PAYLOAD,2023-04-08 10:53:22,15.08845135,0.0001232,53.2163,165.3611,87.4867,272.6266,2.5375e-05,1.16e-06,0.0,0 STARLINK-4494,1 53558U 22101AH  23098.45373562  .00000116  00000-0  25375-4 0  9993,2 53558  53.2163 165.3611 0001232  87.4867 272.6266 15.08845135 36076,6917.865,95.437,540.582,538.877,0.0
53558.0,STARLINK-4494,PAYLOAD,2023-04-09 04:22:37,15.08836293,0.0001509,53.2169,162.0917,92.1519,267.9646,2.4326e-06,-2.49e-06,0.0,0 STARLINK-4494,1 53558U 22101AH  23099.18238213 -.00000249  00000-0  24326-5 0  9991,2 53558  53.2169 162.0917 0001509  92.1519 267.9646 15.08836293 35522,6917.892,95.438,540.801,538.713,0.0
53558.0,STARLINK-4494,PAYLOAD,2023-04-09 09:08:47,15.08831013,0.0001378,53.2169,161.2002,83.3956,276.7193,-3.0762e-05,-7.77e-06,0.0,0 STARLINK-4494,1 53558U 22101AH  23099.38110641 -.00000777  00000-0 -30762-4 0  9994,2 53558  53.2169 161.2002 0001378  83.3956 276.7193 15.08831013 36216,6917.908,95.438,540.726,538.82,0.0
53558.0,STARLINK-4494,PAYLOAD,2023-04-10 07:24:12,15.08776348,0.0001239,53.2175,157.0363,111.7386,248.3738,0.00082768,0.00012886,0.0,0 STARLINK-4494,1 53558U 22101AH  23100.30847587  .00012886  00000-0  82768-3 0  9999,2 53558  53.2175 157.0363 0001239 111.7386 248.3738 15.08776348 35695,6918.075,95.442,540.797,539.083,0.0
53558.0,STARLINK-4494,PAYLOAD,2023-04-10 20:07:15,15.08840222,0.0001503,53.2175,154.6569,104.022,256.0939,4.4233e-05,4.16e-06,0.0,0 STARLINK-4494,1 53558U 22101AH  23100.83837827  .00000416  00000-0  44233-4 0  9995,2 53558  53.2175 154.6569 0001503 104.0220 256.0939 15.08840222 35773,6917.88,95.438,540.784,538.705,0.0
53558.0,STARLINK-4494,PAYLOAD,2023-04-11 08:50:21,15.0883786,0.0001387,53.2177,152.2782,102.8767,257.238,7.4473e-05,8.97e-06,0.0,0 STARLINK-4494,1 53558U 22101AH  23101.36829898  .00000897  00000-0  74473-4 0  9995,2 53558  53.2177 152.2782 0001387 102.8767 257.2380 15.08837860 36518,6917.887,95.438,540.711,538.792,0.0
53558.0,STARLINK-4494,PAYLOAD,2023-04-11 19:58:03,15.08835916,0.0001359,53.2181,150.1973,103.347,256.7673,3.1558e-05,2.14e-06,0.0,0 STARLINK-4494,1 53558U 22101AH  23101.83198230  .00000214  00000-0  31558-4 0  9996,2 53558  53.2181 150.1973 0001359 103.3470 256.7673 15.08835916 36584,6917.893,95.438,540.698,538.818,0.0
53558.0,STARLINK-4494,PAYLOAD,2023-04-12 03:54:59,15.08835126,0.000142,53.2184,148.7103,106.0715,254.0434,-3.519e-05,-8.48e-06,0.0,0 STARLINK-4494,1 53558U 22101AH  23102.16318605 -.00000848  00000-0 -35190-4 0  9994,2 53558  53.2184 148.7103 0001420 106.0715 254.0434 15.08835126 35977,6917.895,95.438,540.743,538.778,0.0
53558.0,STARLINK-4494,PAYLOAD,2023-04-12 08:41:08,15.0883541,0.0001409,53.2185,147.8182,106.5298,253.5849,-3.2865e-05,-8.11e-06,0.0,0 STARLINK-4494,1 53558U 22101AH  23102.36190612 -.00000811  00000-0 -32865-4 0  9998,2 53558  53.2185 147.8182 0001409 106.5298 253.5849 15.08835410 36660,6917.894,95.438,540.734,538.785,0.0
53558.0,STARLINK-4494,PAYLOAD,2023-04-13 10:07:18,15.08838403,0.0001325,53.2187,143.0611,100.0524,260.0618,1.2557e-05,-8.8e-07,0.0,0 STARLINK-4494,1 53558U 22101AH  23103.42174415 -.00000088  00000-0  12557-4 0  9990,2 53558  53.2187 143.0611 0001325 100.0524 260.0618 15.08838403 36825,6917.885,95.438,540.667,538.834,0.0
53558.0,STARLINK-4494,PAYLOAD,2023-04-14 03:36:32,15.08867536,0.0001602,53.2173,139.789,83.3731,276.7443,-0.00039298,-6.542e-05,0.0,0 STARLINK-4494,1 53558U 22101AH  23104.15038098 -.00006542  00000-0 -39298-3 0  9999,2 53558  53.2173 139.7890 0001602  83.3731 276.7443 15.08867536 36270,6917.796,95.436,540.769,538.553,0.0
53558.0,STARLINK-4494,PAYLOAD,2023-04-14 09:58:05,15.08836117,0.0001391,53.2174,138.5993,94.3656,265.7496,0.00010858,1.44e-05,0.0,0 STARLINK-4494,1 53558U 22101AH  23104.41534453  .00001440  00000-0  10858-3 0  9995,2 53558  53.2174 138.5993 0001391  94.3656 265.7496 15.08836117 36317,6917.892,95.438,540.72,538.795,0.0
53558.0,STARLINK-4494,PAYLOAD,2023-04-15 08:13:29,15.08866693,0.000131,53.2176,134.4372,83.4775,276.6366,-0.00028688,-4.854e-05,0.0,0 STARLINK-4494,1 53558U 22101AH  23105.34269865 -.00004854  00000-0 -28688-3 0  9994,2 53558  53.2176 134.4372 0001310  83.4775 276.6366 15.08866693 36451,6917.799,95.436,540.57,538.758,0.0
53558.0,STARLINK-4494,PAYLOAD,2023-04-15 19:21:11,15.08838299,0.0001431,53.2171,132.3556,84.6284,275.4871,1.4678e-05,-5.4e-07,0.0,0 STARLINK-4494,1 53558U 22101AH  23105.80638660 -.00000054  00000-0  14678-4 0  9990,2 53558  53.2171 132.3556 0001431  84.6284 275.4871 15.08838299 36526,6917.886,95.438,540.741,538.761,0.0
53558.0,STARLINK-4494,PAYLOAD,2023-04-16 08:04:17,15.08836639,0.0001413,53.2168,129.9759,89.2047,270.9107,-1.1109e-05,-4.65e-06,0.0,0 STARLINK-4494,1 53558U 22101AH  23106.33630907 -.00000465  00000-0 -11109-4 0  9998,2 53558  53.2168 129.9759 0001413  89.2047 270.9107 15.08836639 37267,6917.891,95.438,540.733,538.778,0.0
53558.0,STARLINK-4494,PAYLOAD,2023-04-17 04:44:17,15.08837418,0.0001394,53.2166,126.1102,88.5077,271.6075,1.3637e-06,-2.66e-06,0.0,0 STARLINK-4494,1 53558U 22101AH  23107.19742948 -.00000266  00000-0  13637-5 0  9999,2 53558  53.2166 126.1102 0001394  88.5077 271.6075 15.08837418 36738,6917.888,95.438,540.718,538.789,0.0
53558.0,STARLINK-4494,PAYLOAD,2023-04-17 11:05:50,15.08840056,0.0001387,53.2166,124.9201,92.0272,268.0879,2.8634e-05,1.68e-06,0.0,0 STARLINK-4494,1 53558U 22101AH  23107.46238688  .00000168  00000-0  28634-4 0  9992,2 53558  53.2166 124.9201 0001387  92.0272 268.0879 15.08840056 37435,6917.88,95.438,540.705,538.786,0.0
53558.0,STARLINK-4494,PAYLOAD,2023-04-18 06:10:28,15.08836921,0.0001392,53.2167,121.3502,101.6044,258.5105,4.5096e-05,4.3e-06,0.0,0 STARLINK-4494,1 53558U 22101AH  23108.25726930  .00000430  00000-0  45096-4 0  9995,2 53558  53.2167 121.3502 0001392 101.6044 258.5105 15.08836921 36892,6917.89,95.438,540.718,538.792,0.0
53558.0,STARLINK-4494,PAYLOAD,2023-04-18 10:56:37,15.08839114,0.0001492,53.2179,120.4596,102.1598,257.9561,6.6658e-05,7.73e-06,0.0,0 STARLINK-4494,1 53558U 22101AH  23108.45598759  .00000773  00000-0  66658-4 0  9990,2 53558  53.2179 120.4596 0001492 102.1598 257.9561 15.08839114 37582,6917.883,95.438,540.78,538.716,0.0
53558.0,STARLINK-4494,PAYLOAD,2023-04-18 17:18:10,15.0883412,0.0001426,53.2174,119.2699,97.7785,262.3369,2.5488e-05,1.18e-06,0.0,0 STARLINK-4494,1 53558U 22101AH  23108.72095279  .00000118  00000-0  25488-4 0  9998,2 53558  53.2174 119.2699 0001426  97.7785 262.3369 15.08834120 37624,6917.898,95.438,540.75,538.777,0.0
53558.0,STARLINK-4494,PAYLOAD,2023-04-19 10:47:25,15.08834927,0.0001418,53.2179,115.9991,97.1257,262.9896,-9.8629e-06,-4.45e-06,0.0,0 STARLINK-4494,1 53558U 22101AH  23109.44959650 -.00000445  00000-0 -98629-5 0  9993,2 53558  53.2179 115.9991 0001418  97.1257 262.9896 15.08834927 37734,6917.896,95.438,540.742,538.78,0.0
53558.0,STARLINK-4494,PAYLOAD,2023-04-19 17:08:57,15.08834419,0.0001375,53.2175,114.8101,96.9443,263.1706,-1.8829e-05,-5.88e-06,0.0,0 STARLINK-4494,1 53558U 22101AH  23109.71455792 -.00000588  00000-0 -18829-4 0  9992,2 53558  53.2175 114.8101 0001375  96.9443 263.1706 15.08834419 37770,6917.897,95.438,540.714,538.811,0.0
53558.0,STARLINK-4494,PAYLOAD,2023-04-20 04:16:39,15.08840259,0.0001327,53.2172,112.7285,90.7192,269.3952,2.1995e-05,6.2e-07,0.0,0 STARLINK-4494,1 53558U 22101AH  23110.17823424  .00000062  00000-0  21995-4 0  9998,2 53558  53.2172 112.7285 0001327  90.7192 269.3952 15.08840259 37182,6917.88,95.438,540.663,538.827,0.0
53558.0,STARLINK-4494,PAYLOAD,2023-04-20 09:02:48,15.08841361,0.0001327,53.2172,111.8365,89.659,270.4554,3.0945e-05,2.05e-06,0.0,0 STARLINK-4494,1 53558U 22101AH  23110.37695331  .00000205  00000-0  30945-4 0  9998,2 53558  53.2172 111.8365 0001327  89.6590 270.4554 15.08841361 37872,6917.876,95.437,540.659,538.823,0.0
53558.0,STARLINK-4494,PAYLOAD,2023-04-20 16:59:44,15.08837324,0.0001294,53.2174,110.3497,89.8774,270.2366,-1.8662e-05,-5.85e-06,0.0,0 STARLINK-4494,1 53558U 22101AH  23110.70815758 -.00000585  00000-0 -18662-4 0  9997,2 53558  53.2174 110.3497 0001294  89.8774 270.2366 15.08837324 37922,6917.889,95.438,540.649,538.858,0.0
53558.0,STARLINK-4494,PAYLOAD,2023-04-21 05:42:50,15.08834424,0.00013,53.2173,107.9706,88.4594,271.6547,3.088e-05,2.04e-06,0.0,0 STARLINK-4494,1 53558U 22101AH  23111.23807978  .00000204  00000-0  30880-4 0  9993,2 53558  53.2173 107.9706 0001300  88.4594 271.6547 15.08834424 37349,6917.897,95.438,540.662,538.863,0.0
